[{"OBJECT_NAME":"STARLINK-30926","OBJECT_ID":"2023-183M","EPOCH":"2026-03-09T22:57:33.417792","MEAN_MOTION":15.26727764,"ECCENTRICITY":0.00025494,"INCLINATION":43.002,"RA_OF_ASC_NODE":39.3381,"ARG_OF_PERICENTER":295.1193,"MEAN_ANOMALY":64.9394,"EPHEMERIS_TYPE":0,"CLASSIFICATION_TYPE":"U","NORAD_CAT_ID":58448,"ELEMENT_SET_NO":999,"REV_AT_EPOCH":12678,"BSTAR":-6.3321794e-5,"MEAN_MOTION_DOT":-1.958e-5,"MEAN_MOTION_DDOT":0},{"OBJECT_NAME":"H-2A R\/B","OBJECT_ID":"2006-004B","EPOCH":"2026-03-09T18:46:59.670048","MEAN_MOTION":3.17438641,"ECCENTRICITY":0.65957336,"INCLINATION":28.3349,"RA_OF_ASC_NODE":220.7825,"ARG_OF_PERICENTER":139.5968,"MEAN_ANOMALY":295.2281,"EPHEMERIS_TYPE":0,"CLASSIFICATION_TYPE":"U","NORAD_CAT_ID":28938,"ELEMENT_SET_NO":999,"REV_AT_EPOCH":19763,"BSTAR":0.0029546241,"MEAN_MOTION_DOT":0.00010285,"MEAN_MOTION_DDOT":0}]
